
STARLINK-6115           
1 56123U 23046AH  24356.18013009  .00000330  00000+0  39477-4 0  9993
2 56123  43.0054  36.1355 0001139 266.5254  93.5459 15.02532469 95491
STARLINK-6126           
1 56124U 23046AJ  24356.12696628  .00001580  00000+0  13199-3 0  9992
2 56124  43.0029  36.5966 0001312 262.9581  97.1112 15.02541757 95487
STARLINK-6119           
1 56125U 23046AK  24356.51583892  .00003555  00000+0  27820-3 0  9994
2 56125  43.0046  34.3573 0001749 325.2804  34.7924 15.02527767 95542
STARLINK-6124           
1 56126U 23046AL  24356.50918112  .00001210  00000+0  10459-3 0  9997
2 56126  43.0043  34.3023 0001235 269.5227  90.5474 15.02541721 95545
STARLINK-6104           
1 56127U 23046AM  24356.50139436  .00003843  00000+0  29920-3 0  9999
2 56127  43.0048  34.2466 0001055 283.5832  76.4892 15.02559177 95540
STARLINK-6122           
1 56128U 23046AN  24356.51806127  .00002290  00000+0  18462-3 0  9993
2 56128  43.0037  34.3725 0001023 278.8946  81.1780 15.02525741 95545
STARLINK-6121           
1 56129U 23046AP  24355.17624270 -.00000694  00000+0 -36301-4 0  9993
2 56129  43.0060 349.6087 0001094 274.5199  85.5518 15.02533862 95940
STARLINK-6117           
1 56130U 23046AQ  24356.50585640  .00001165  00000+0  10129-3 0  9991
2 56130  43.0034  34.2794 0001076 271.3636  88.7083 15.02536944 95548
STARLINK-6120           
1 56131U 23046AR  24356.15904029  .00000777  00000+0  72560-4 0  9995
2 56131  43.0045  35.9761 0001299 271.8014  88.2679 15.02535996 95491
STARLINK-6071           
1 56132U 23046AS  24356.50252728  .00001600  00000+0  13346-3 0  9999
2 56132  43.0040  34.2537 0001595 262.1236  97.9425 15.02541173 95544
STARLINK-5566           
1 56133U 23046AT  24356.16015101 -.00000148  00000+0  41061-5 0  9998
2 56133  43.0051  35.9847 0001212 264.0892  95.9813 15.02536507 95492
STARLINK-5564           
1 56134U 23046AU  24356.29976661  .00003167  00000+0  24937-3 0  9994
2 56134  43.0033  35.3103 0001177 275.9891  84.0817 15.02539603 95518
STARLINK-5489           
1 56136U 23046AW  24356.49476317 -.00000032  00000+0  12684-4 0  9997
2 56136  43.0052  34.1966 0001242 281.1486  78.9217 15.02542706 95544
STARLINK-5090           
1 56137U 23046AX  24356.47255661  .00001010  00000+0  89794-4 0  9995
2 56137  43.0036  34.0282 0001095 260.7826  99.2892 15.02539334 95542
STARLINK-4774           
1 56138U 23046AY  24356.48809792  .00000712  00000+0  67805-4 0  9994
2 56138  43.0055  34.1433 0001450 270.1272  89.9404 15.02536045 95549
STARLINK-5375           
1 56140U 23046BA  24356.15348968  .00002866  00000+0  22716-3 0  9997
2 56140  43.0058  35.9320 0001217 267.8684  92.2019 15.02528916 95491
STARLINK-5377           
1 56141U 23046BB  24356.47145856  .00003998  00000+0  31096-3 0  9992
2 56141  43.0053  34.0207 0000831 283.4478  76.6272 15.02527522 95542
STARLINK-5376           
1 56142U 23046BC  24356.54901499  .00006360  00000+0  48514-3 0  9993
2 56142  43.0039  33.7417 0001230 268.9975  91.0726 15.02560448 95550
STARLINK-5016           
1 56143U 23046BD  24356.13351062  .00000504  00000+0  52414-4 0  9993
2 56143  43.0053  35.7824 0001402 255.4310 104.6377 15.02535578 95498
STARLINK-5374           
1 56144U 23046BE  24356.14682721  .00001505  00000+0  12647-3 0  9999
2 56144  43.0038  35.8814 0001181 274.5796  85.4912 15.02541893 95494
STARLINK-5111           
1 56146U 23046BG  24356.46811740 -.00001257  00000+0 -77993-4 0  9993
2 56146  43.0040  33.9915 0001312 268.8779  91.1913 15.02544325 95547
STARLINK-5140           
1 56147U 23046BH  24356.04460542  .00001489  00000+0  12528-3 0  9995
2 56147  43.0047 357.7576 0001133 264.2175  95.8538 15.02538608 95929
STARLINK-5089           
1 56148U 23046BJ  24356.44679355  .00003869  00000+0  30128-3 0  9994
2 56148  43.0050 355.6184 0001191 242.7812 117.2909 15.02540256 95988
PIESAT A                
1 56153U 23047A   24354.66131041  .00009808  00000+0  53893-3 0  9991
2 56153  97.5033 178.5672 0001481  71.3092 288.8301 15.14304536 95399
PIESAT B                
1 56154U 23047B   24354.66131096  .00013697  00000+0  75073-3 0  9997
2 56154  97.5002 178.5677 0001502 105.1394 255.0004 15.14307068 95395
PIESAT C                
1 56155U 23047C   24354.59523419  .00007975  00000+0  43904-3 0  9994
2 56155  97.5016 178.5043 0001792  83.3586 276.7849 15.14298858 95381
PIESAT D                
1 56156U 23047D   24354.59523286  .00009837  00000+0  54056-3 0  9996
2 56156  97.5014 178.5026 0002006  96.0468 264.0993 15.14301900 95383
2023-048A               
1 56157U 23048A   24356.56824568 -.00000069  00000+0  35870-4 0  9997
2 56157  63.4037  52.0133 0061465 353.5060   6.5163 13.45362706 84939
CHECKMATE 8             
1 56162U 23050A   24356.15000727  .00000173  00000+0  14360-3 0  9999
2 56162  81.0017 232.5108 0006450 350.9672   9.1367 13.84811073 86980
CHECKMATE 5             
1 56163U 23050B   24356.20062088  .00000159  00000+0  13154-3 0  9998
2 56163  81.0007 232.3398 0006508 349.5105  10.5914 13.84845850 87006
CHECKMATE 4             
1 56164U 23050C   24356.60012285  .00000156  00000+0  12880-3 0  9999
2 56164  81.0011 232.0698 0005959   1.4519 358.6653 13.84710251 87040
CHECKMATE 6             
1 56165U 23050D   24356.18194687  .00000075  00000+0  56533-4 0  9994
2 56165  81.0041 232.5531 0006582 346.0960  14.0014 13.84837464 86933
CHECKMATE 7             
1 56166U 23050E   24356.58776127  .00000156  00000+0  12899-3 0  9990
2 56166  81.0001 231.8373 0006524 343.2519  16.8420 13.84879780 86995
CHECKMATE 2             
1 56167U 23050F   24356.56622813  .00000155  00000+0  12700-3 0  9991
2 56167  81.0040 232.0694 0006900 344.0723  16.0215 13.85011591 86995
CHECKMATE 1             
1 56168U 23050G   24356.18573253  .00000140  00000+0  11453-3 0  9991
2 56168  81.0039 232.5462 0011671  11.9344 348.2087 13.84840203 86932
CHECKMATE 3             
1 56169U 23050H   24356.17090724  .00000126  00000+0  10199-3 0  9998
2 56169  81.0026 232.2706 0006932 340.0038  20.0845 13.85051331 86942
BB 2                    
1 56170U 23050J   24356.56070423  .00000273  00000+0  25547-3 0  9993
2 56170  81.0023 237.2499 0010279 317.1723  42.8628 13.79349274 86669
BB 1                    
1 56171U 23050K   24356.20198499  .00000267  00000+0  24992-3 0  9995
2 56171  81.0021 237.4252 0015906 317.7001  42.2924 13.79343929 86624
INTELSAT 40E (IS-40E)   
1 56174U 23052A   24356.29516696 -.00000162  00000+0  00000+0 0  9997
2 56174   0.0141  58.1956 0001744 187.3603 220.0518  1.00272289  6385
IMECE                   
1 56178U 23054A   24356.55082121  .00000876  00000+0  16893-3 0  9995
2 56178  98.1601 255.2281 0011016  82.8194 277.4261 14.65910808 90910
ORBASTRO-AF 1           
1 56179U 23054B   24356.52367913  .00030500  00000+0  70327-3 0  9997
2 56179  97.3398 251.4231 0003152 215.5475 144.5563 15.42521412 94735
DEWASAT-2               
1 56180U 23054C   24356.57237194  .00111055  00000+0  76189-3 0  9998
2 56180  97.3444 261.0189 0004179 118.8338 241.3347 15.74371211 95339
KILICSAT                
1 56181U 23054D   24356.50367730  .00218169  00000+0  13952-2 0  9994
2 56181  97.3301 257.8796 0004902 115.5005 244.6768 15.75692284 95169
SATELIOT_0              
1 56183U 23054F   24356.53661929  .00049089  00000+0  86945-3 0  9992
2 56183  97.3358 253.3301 0003008 159.4408 200.6965 15.50127606 94889
SSS-2B                  
1 56184U 23054G   24356.56017461  .02781622  23787-5  16363-2 0  9999
2 56184  97.3203 260.9506 0006737 123.1729 237.0206 16.18641900 95332
BRO-9                   
1 56185U 23054H   24356.56728674  .00028639  00000+0  74419-3 0  9999
2 56185  97.3412 250.8890 0004226 202.1132 157.9932 15.38899743 94714
GHGSAT-C8               
1 56186U 23054J   24356.55047866  .00013937  00000+0  39718-3 0  9994
2 56186  97.3461 250.8486 0005280 216.8638 143.2243 15.36180833 94684
IT'S ABOUT TIME         
1 56189U 23054M   24356.22731026  .00045720  00000+0  82114-3 0  9992
2 56189  97.3453 253.8024 0003769 180.0555 180.0696 15.49744674 94841
NUSAT-36 (ANNIE CANNON) 
1 56190U 23054N   24356.54375016  .00077510  00000+0  10270-2 0  9997
2 56190  97.3351 255.3381 0004117 143.1169 217.0371 15.58017530 95017
HAWK-7A                 
1 56191U 23054P   24356.24696177  .00009555  00000+0  40215-3 0  9996
2 56191  97.3476 243.6266 0006742 188.4380 171.6745 15.23563804 94157
ION SCV-010             
1 56192U 23054Q   24356.23482834  .00008448  00000+0  40258-3 0  9996
2 56192  97.4445 241.9298 0015792 307.9904  51.9904 15.19254498 93568
HAWK-7B                 
1 56193U 23054R   24356.24688815  .00010070  00000+0  42354-3 0  9998
2 56193  97.3375 242.1110 0007298 203.3029 156.7878 15.23567265 94159
NORSAT-TD               
1 56194U 23054S   24356.57194473  .00061402  00000+0  96519-3 0  9994
2 56194  97.3415 254.7327 0003432 238.2182 121.8737 15.53424347 94958
GHOST-1                 
1 56195U 23054T   24356.24804913  .00022990  00000+0  56517-3 0  9999
2 56195  97.3426 251.3280 0005787 195.5182 164.5888 15.40631183 94700
GHOST-2                 
1 56197U 23054V   24356.22542297  .00031683  00000+0  67011-3 0  9993
2 56197  97.3415 252.6689 0005625 188.3495 171.7661 15.45071090 94793
TOMORROW-R1             
1 56199U 23054X   24356.28264001  .00071648  00000+0  98636-3 0  9997
2 56199  97.3444 255.6760 0004789 169.7206 190.4148 15.57007521 94983
HAWK-7C                 
1 56200U 23054Y   24356.24677352  .00010238  00000+0  43059-3 0  9990
2 56200  97.3381 242.9114 0006448 200.3210 159.7772 15.23568631 94156
NUSAT-39 (TIKVAH ALPER) 
1 56201U 23054Z   24356.55252920  .00038528  00000+0  89597-3 0  9994
2 56201  97.3436 253.1927 0004823 181.1014 179.0223 15.42211201 94859
